[{"OBJECT_NAME":"HXMT (HUIYAN)","OBJECT_ID":"2017-034A","EPOCH":"2026-03-09T23:24:09.166176","MEAN_MOTION":15.17468939,"ECCENTRICITY":0.00329459,"INCLINATION":43.0157,"RA_OF_ASC_NODE":15.0865,"ARG_OF_PERICENTER":237.7405,"MEAN_ANOMALY":122.0249,"EPHEMERIS_TYPE":0,"CLASSIFICATION_TYPE":"U","NORAD_CAT_ID":42758,"ELEMENT_SET_NO":999,"REV_AT_EPOCH":48258,"BSTAR":0.00038670516,"MEAN_MOTION_DOT":7.762e-5,"MEAN_MOTION_DDOT":0},{"OBJECT_NAME":"HUNITY","OBJECT_ID":"2025-276E","EPOCH":"2026-03-09T18:00:58.161024","MEAN_MOTION":15.21896165,"ECCENTRICITY":0.0006587,"INCLINATION":97.4154,"RA_OF_ASC_NODE":144.0054,"ARG_OF_PERICENTER":10.2177,"MEAN_ANOMALY":349.9192,"EPHEMERIS_TYPE":0,"CLASSIFICATION_TYPE":"U","NORAD_CAT_ID":66670,"ELEMENT_SET_NO":999,"REV_AT_EPOCH":1533,"BSTAR":0.001210955,"MEAN_MOTION_DOT":0.0002759,"MEAN_MOTION_DDOT":0}]
